start=new Date('2022-04-15T00:00:00.000Z').valueOf();
sats=[{"CLASSIFICATION_TYPE":"U","SEMIMAJOR_AXIS":"6925.335","APOAPSIS":"548.373","MEAN_ELEMENT_THEORY":"SGP4","OBJECT_TYPE":"PAYLOAD","EPOCH":"2022-04-14T17:33:53.477280","DECAY_DATE":null,"PERIAPSIS":"546.028","TLE_LINE1":"1 44754U 19074AT  22104.73186895  .00002704  00000-0  20032-3 0  9994","REV_AT_EPOCH":"13414","COUNTRY_CODE":"US","BSTAR":"0.00020032000000","ELEMENT_SET_NO":"999","ECCENTRICITY":"0.00016930","PERIOD":"95.592","TIME_SYSTEM":"UTC","EPHEMERIS_TYPE":"0","LAUNCH_DATE":"2019-11-11","FILE":"3401687","SITE":"AFETR","ARG_OF_PERICENTER":"63.7401","TLE_LINE2":"2 44754  53.0553 103.5157 0001693  63.7401 296.3761 15.06404315134145","MEAN_MOTION_DOT":"0.00002704","REF_FRAME":"TEME","CENTER_NAME":"EARTH","GP_ID":"201229922","RCS_SIZE":"LARGE","MEAN_ANOMALY":"296.3761","NORAD_CAT_ID":"44754","INCLINATION":"53.0553","MEAN_MOTION_DDOT":"0.0000000000000","MEAN_MOTION":"15.06404315","OBJECT_NAME":"STARLINK-1049","RA_OF_ASC_NODE":"103.5157","OBJECT_ID":"2019-074AT"},{"TLE_LINE1":"1 44757U 19074AW  22104.46834577  .00001566  00000-0  12406-3 0  9995","COUNTRY_CODE":"US","REV_AT_EPOCH":"13382","BSTAR":"0.00012406000000","PERIAPSIS":"545.908","DECAY_DATE":null,"EPHEMERIS_TYPE":"0","PERIOD":"95.592","TIME_SYSTEM":"UTC","ECCENTRICITY":"0.00019100","ELEMENT_SET_NO":"999","MEAN_ELEMENT_THEORY":"SGP4","APOAPSIS":"548.553","SEMIMAJOR_AXIS":"6925.365","CLASSIFICATION_TYPE":"U","OBJECT_TYPE":"PAYLOAD","EPOCH":"2022-04-14T11:14:25.074528","MEAN_MOTION_DDOT":"0.0000000000000","NORAD_CAT_ID":"44757","INCLINATION":"53.0538","MEAN_ANOMALY":"309.6305","OBJECT_ID":"2019-074AW","MEAN_MOTION":"15.06394505","RA_OF_ASC_NODE":"124.6890","OBJECT_NAME":"STARLINK-1052","SITE":"AFETR","ARG_OF_PERICENTER":"50.4852","TLE_LINE2":"2 44757  53.0538 124.6890 0001910  50.4852 309.6305 15.06394505133829","FILE":"3401687","LAUNCH_DATE":"2019-11-11","RCS_SIZE":"LARGE","CENTER_NAME":"EARTH","GP_ID":"201229925","REF_FRAME":"TEME","MEAN_MOTION_DOT":"0.00001566"},{"OBJECT_NAME":"STARLINK-1053","RA_OF_ASC_NODE":"143.1683","MEAN_MOTION":"15.06417552","OBJECT_ID":"2019-074AX","MEAN_ANOMALY":"310.0567","MEAN_MOTION_DDOT":"0.0000000000000","INCLINATION":"53.0542","NORAD_CAT_ID":"44758","REF_FRAME":"TEME","MEAN_MOTION_DOT":"0.00007049","RCS_SIZE":"LARGE","GP_ID":"201254040","CENTER_NAME":"EARTH","LAUNCH_DATE":"2019-11-11","TLE_LINE2":"2 44758  53.0542 143.1683 0001652  50.0567 310.0567 15.06417552133434","ARG_OF_PERICENTER":"50.0567","SITE":"AFETR","FILE":"3401977","ECCENTRICITY":"0.00016520","ELEMENT_SET_NO":"999","EPHEMERIS_TYPE":"0","TIME_SYSTEM":"UTC","PERIOD":"95.591","PERIAPSIS":"546.016","DECAY_DATE":null,"COUNTRY_CODE":"US","BSTAR":"0.00049143000000","REV_AT_EPOCH":"13343","TLE_LINE1":"1 44758U 19074AX  22104.80834160  .00007049  00000-0  49143-3 0  9992","EPOCH":"2022-04-14T19:24:00.714240","OBJECT_TYPE":"PAYLOAD","CLASSIFICATION_TYPE":"U","APOAPSIS":"548.304","MEAN_ELEMENT_THEORY":"SGP4","SEMIMAJOR_AXIS":"6925.295"},{"MEAN_MOTION_DDOT":"0.0000000000000","INCLINATION":"53.0524","NORAD_CAT_ID":"44759","MEAN_ANOMALY":"303.3730","OBJECT_ID":"2019-074AY","OBJECT_NAME":"STARLINK-1054","MEAN_MOTION":"15.06398403","RA_OF_ASC_NODE":"143.2090","TLE_LINE2":"2 44759  53.0524 143.2090 0001632  56.7416 303.3730 15.06398403133601","ARG_OF_PERICENTER":"56.7416","SITE":"AFETR","FILE":"3401687","LAUNCH_DATE":"2019-11-11","RCS_SIZE":"LARGE","CENTER_NAME":"EARTH","GP_ID":"201230423","REF_FRAME":"TEME","MEAN_MOTION_DOT":"0.00001177","COUNTRY_CODE":"US","REV_AT_EPOCH":"13360","BSTAR":"0.00009787800000","TLE_LINE1":"1 44759U 19074AY  22104.79822672  .00001177  00000-0  97878-4 0  9991","PERIAPSIS":"546.088","DECAY_DATE":null,"EPHEMERIS_TYPE":"0","TIME_SYSTEM":"UTC","PERIOD":"95.592","ECCENTRICITY":"0.00016320","ELEMENT_SET_NO":"999","APOAPSIS":"548.349","MEAN_ELEMENT_THEORY":"SGP4","SEMIMAJOR_AXIS":"6925.353","CLASSIFICATION_TYPE":"U","EPOCH":"2022-04-14T19:09:26.788608","OBJECT_TYPE":"PAYLOAD"},{"EPOCH":"2022-04-14T12:26:04.979616","OBJECT_TYPE":"PAYLOAD","SEMIMAJOR_AXIS":"6925.370","APOAPSIS":"548.547","MEAN_ELEMENT_THEORY":"SGP4","CLASSIFICATION_TYPE":"U","TIME_SYSTEM":"UTC","PERIOD":"95.593","EPHEMERIS_TYPE":"0","ELEMENT_SET_NO":"999","ECCENTRICITY":"0.00018950","BSTAR":"0.00023927000000","COUNTRY_CODE":"US","REV_AT_EPOCH":"13339","TLE_LINE1":"1 44760U 19074AZ  22104.51811319  .00003283  00000-0  23927-3 0  9992","DECAY_DATE":null,"PERIAPSIS":"545.922","CENTER_NAME":"EARTH","GP_ID":"201222309","RCS_SIZE":"LARGE","MEAN_MOTION_DOT":"0.00003283","REF_FRAME":"TEME","FILE":"3401567","TLE_LINE2":"2 44760  53.0547 144.4601 0001895  47.4163 312.6986 15.06393157133399","ARG_OF_PERICENTER":"47.4163","SITE":"AFETR","LAUNCH_DATE":"2019-11-11","OBJECT_ID":"2019-074AZ","RA_OF_ASC_NODE":"144.4601","OBJECT_NAME":"STARLINK-1055","MEAN_MOTION":"15.06393157","INCLINATION":"53.0547","NORAD_CAT_ID":"44760","MEAN_MOTION_DDOT":"0.0000000000000","MEAN_ANOMALY":"312.6986"},{"ELEMENT_SET_NO":"999","ECCENTRICITY":"0.00018310","EPHEMERIS_TYPE":"0","PERIOD":"95.591","TIME_SYSTEM":"UTC","PERIAPSIS":"545.880","DECAY_DATE":null,"TLE_LINE1":"1 44761U 19074BA  22104.79455107  .00010692  00000-0  73516-3 0  9993","COUNTRY_CODE":"US","REV_AT_EPOCH":"13343","BSTAR":"0.00073516000000","OBJECT_TYPE":"PAYLOAD","EPOCH":"2022-04-14T19:04:09.212448","CLASSIFICATION_TYPE":"U","APOAPSIS":"548.416","MEAN_ELEMENT_THEORY":"SGP4","SEMIMAJOR_AXIS":"6925.283","OBJECT_NAME":"STARLINK-1056","RA_OF_ASC_NODE":"143.2209","MEAN_MOTION":"15.06421327","OBJECT_ID":"2019-074BA","MEAN_ANOMALY":"308.5340","MEAN_MOTION_DDOT":"0.0000000000000","NORAD_CAT_ID":"44761","INCLINATION":"53.0534","REF_FRAME":"TEME","MEAN_MOTION_DOT":"0.00010692","RCS_SIZE":"LARGE","GP_ID":"201255292","CENTER_NAME":"EARTH","LAUNCH_DATE":"2019-11-11","SITE":"AFETR","TLE_LINE2":"2 44761  53.0534 143.2209 0001831  51.5813 308.5340 15.06421327133439","ARG_OF_PERICENTER":"51.5813","FILE":"3401977"},{"ECCENTRICITY":"0.00018950","ELEMENT_SET_NO":"999","PERIOD":"95.592","TIME_SYSTEM":"UTC","EPHEMERIS_TYPE":"0","DECAY_DATE":null,"PERIAPSIS":"545.896","TLE_LINE1":"1 44762U 19074BB  22104.53099446  .00000800  00000-0  72596-4 0  9994","BSTAR":"0.00007259600000","COUNTRY_CODE":"US","REV_AT_EPOCH":"13383","OBJECT_TYPE":"PAYLOAD","EPOCH":"2022-04-14T12:44:37.921344","CLASSIFICATION_TYPE":"U","SEMIMAJOR_AXIS":"6925.344","APOAPSIS":"548.521","MEAN_ELEMENT_THEORY":"SGP4","OBJECT_NAME":"STARLINK-1057","MEAN_MOTION":"15.06401609","RA_OF_ASC_NODE":"124.3928","OBJECT_ID":"2019-074BB","MEAN_ANOMALY":"311.8477","NORAD_CAT_ID":"44762","INCLINATION":"53.0554","MEAN_MOTION_DDOT":"0.0000000000000","MEAN_MOTION_DOT":"0.00000800","REF_FRAME":"TEME","GP_ID":"201229924","CENTER_NAME":"EARTH","RCS_SIZE":"LARGE","LAUNCH_DATE":"2019-11-11","FILE":"3401687","SITE":"AFETR","ARG_OF_PERICENTER":"48.2674","TLE_LINE2":"2 44762  53.0554 124.3928 0001895  48.2674 311.8477 15.06401609133831"},{"EPOCH":"2022-04-14T19:35:59.457696","OBJECT_TYPE":"PAYLOAD","APOAPSIS":"548.522","MEAN_ELEMENT_THEORY":"SGP4","SEMIMAJOR_AXIS":"6925.328","CLASSIFICATION_TYPE":"U","EPHEMERIS_TYPE":"0","TIME_SYSTEM":"UTC","PERIOD":"95.592","ELEMENT_SET_NO":"999","ECCENTRICITY":"0.00019190","REV_AT_EPOCH":"13360","COUNTRY_CODE":"US","BSTAR":"0.00035998000000","TLE_LINE1":"1 44763U 19074BC  22104.81666039  .00005085  00000-0  35998-3 0  9998","PERIAPSIS":"545.864","DECAY_DATE":null,"RCS_SIZE":"LARGE","CENTER_NAME":"EARTH","GP_ID":"201230458","REF_FRAME":"TEME","MEAN_MOTION_DOT":"0.00005085","ARG_OF_PERICENTER":"48.3431","TLE_LINE2":"2 44763  53.0535 143.1364 0001919  48.3431 311.7722 15.06406698133603","SITE":"AFETR","FILE":"3401689","LAUNCH_DATE":"2019-11-11","OBJECT_ID":"2019-074BC","OBJECT_NAME":"STARLINK-1058","RA_OF_ASC_NODE":"143.1364","MEAN_MOTION":"15.06406698","MEAN_MOTION_DDOT":"0.0000000000000","INCLINATION":"53.0535","NORAD_CAT_ID":"44763","MEAN_ANOMALY":"311.7722"},{"MEAN_MOTION_DOT":"0.00002978","REF_FRAME":"TEME","GP_ID":"201229964","CENTER_NAME":"EARTH","RCS_SIZE":"LARGE","LAUNCH_DATE":"2019-11-11","FILE":"3401689","ARG_OF_PERICENTER":"46.0505","TLE_LINE2":"2 44764  53.0544 124.7239 0001806  46.0505 314.0633 15.06403815133821","SITE":"AFETR","MEAN_MOTION":"15.06403815","OBJECT_NAME":"STARLINK-1059","RA_OF_ASC_NODE":"124.7239","OBJECT_ID":"2019-074BD","MEAN_ANOMALY":"314.0633","INCLINATION":"53.0544","NORAD_CAT_ID":"44764","MEAN_MOTION_DDOT":"0.0000000000000","EPOCH":"2022-04-14T11:03:47.184192","OBJECT_TYPE":"PAYLOAD","CLASSIFICATION_TYPE":"U","SEMIMAJOR_AXIS":"6925.337","APOAPSIS":"548.453","MEAN_ELEMENT_THEORY":"SGP4","ELEMENT_SET_NO":"999","ECCENTRICITY":"0.00018060","TIME_SYSTEM":"UTC","PERIOD":"95.592","EPHEMERIS_TYPE":"0","DECAY_DATE":null,"PERIAPSIS":"545.951","BSTAR":"0.00021871000000","COUNTRY_CODE":"US","REV_AT_EPOCH":"13382","TLE_LINE1":"1 44764U 19074BD  22104.46096278  .00002978  00000-0  21871-3 0  9995"},{"SEMIMAJOR_AXIS":"6925.387","MEAN_ELEMENT_THEORY":"SGP4","APOAPSIS":"548.431","CLASSIFICATION_TYPE":"U","OBJECT_TYPE":"PAYLOAD","EPOCH":"2022-04-14T17:52:30.999936","TLE_LINE1":"1 44765U 19074BE  22104.74480324  .00002080  00000-0  15855-3 0  9995","BSTAR":"0.00015855000000","COUNTRY_CODE":"US","REV_AT_EPOCH":"13369","DECAY_DATE":null,"PERIAPSIS":"546.073","PERIOD":"95.593","TIME_SYSTEM":"UTC","EPHEMERIS_TYPE":"0","ELEMENT_SET_NO":"999","ECCENTRICITY":"0.00017020","FILE":"3401977","SITE":"AFETR","TLE_LINE2":"2 44765  53.0543 123.4349 0001702  61.4842 298.6318 15.06387412133695","ARG_OF_PERICENTER":"61.4842","LAUNCH_DATE":"2019-11-11","GP_ID":"201254798","CENTER_NAME":"EARTH","RCS_SIZE":"LARGE","MEAN_MOTION_DOT":"0.00002080","REF_FRAME":"TEME","NORAD_CAT_ID":"44765","INCLINATION":"53.0543","MEAN_MOTION_DDOT":"0.0000000000000","MEAN_ANOMALY":"298.6318","OBJECT_ID":"2019-074BE","MEAN_MOTION":"15.06387412","OBJECT_NAME":"STARLINK-1060","RA_OF_ASC_NODE":"123.4349"}];
